NORAD_CAT_ID,OBJECT_NAME,OBJECT_TYPE,EPOCH,MEAN_MOTION,ECCENTRICITY,INCLINATION,RA_OF_ASC_NODE,ARG_OF_PERICENTER,MEAN_ANOMALY,BSTAR,MEAN_MOTION_DOT,MEAN_MOTION_DDOT,TLE_LINE0,TLE_LINE1,TLE_LINE2,SEMIMAJOR_AXIS,PERIOD,APOGEE,PERIGEE,DECAYED
53729.0,STARLINK-4651,PAYLOAD,2024-04-27 03:45:07,15.08848163,0.0001495,53.2175,73.7547,96.7277,263.3885,0.00022556,3.304e-05,0.0,0 STARLINK-4651,1 53729U 22107AF  24118.15634204  .00003304  00000-0  22556-3 0  9992,2 53729  53.2175  73.7547 0001495  96.7277 263.3885 15.08848163 91066,6917.855,95.437,540.755,538.686,0.0
53729.0,STARLINK-4651,PAYLOAD,2024-04-27 21:14:22,15.08835544,0.0001332,53.2167,70.4803,90.8929,269.2216,-5.6383e-05,-1.185e-05,0.0,0 STARLINK-4651,1 53729U 22107AF  24118.88498729 -.00001185  00000-0 -56383-4 0  9995,2 53729  53.2167  70.4803 0001332  90.8929 269.2216 15.08835544 91179,6917.894,95.438,540.68,538.838,0.0
53729.0,STARLINK-4651,PAYLOAD,2024-04-28 13:08:14,15.08836218,0.0001282,53.2169,67.5097,83.1741,276.9397,-5.5293e-05,-1.168e-05,0.0,0 STARLINK-4651,1 53729U 22107AF  24119.54738993 -.00001168  00000-0 -55293-4 0  9999,2 53729  53.2169  67.5097 0001282  83.1741 276.9397 15.08836218 91909,6917.892,95.438,540.644,538.87,0.0
53729.0,STARLINK-4651,PAYLOAD,2024-04-29 03:26:42,15.08844076,0.0001288,53.217,64.833,76.1849,283.9287,0.00017298,2.466e-05,0.0,0 STARLINK-4651,1 53729U 22107AF  24120.14354900  .00002466  00000-0  17298-3 0  9991,2 53729  53.2170  64.8330 0001288  76.1849 283.9287 15.08844076 91365,6917.868,95.437,540.624,538.842,0.0
53729.0,STARLINK-4651,PAYLOAD,2024-04-29 12:59:01,15.08844787,0.0001317,53.217,63.0481,73.0318,287.0819,0.00022382,3.276e-05,0.0,0 STARLINK-4651,1 53729U 22107AF  24120.54098849  .00003276  00000-0  22382-3 0  9992,2 53729  53.2170  63.0481 0001317  73.0318 287.0819 15.08844787 92055,6917.866,95.437,540.642,538.82,0.0
53729.0,STARLINK-4651,PAYLOAD,2024-04-29 19:20:34,15.08841048,0.0002324,53.217,61.8591,75.2498,284.8751,0.00017776,2.542e-05,0.0,0 STARLINK-4651,1 53729U 22107AF  24120.80595442  .00002542  00000-0  17776-3 0  9998,2 53729  53.2170  61.8591 0002324  75.2498 284.8751 15.08841048 91466,6917.877,95.437,541.35,538.134,0.0
53729.0,STARLINK-4651,PAYLOAD,2024-04-30 12:49:48,15.08839778,0.0001658,53.2185,58.592,90.2051,269.9131,4.3451e-05,4.04e-06,0.0,0 STARLINK-4651,1 53729U 22107AF  24121.53459306  .00000404  00000-0  43451-4 0  9992,2 53729  53.2185  58.5920 0001658  90.2051 269.9131 15.08839778 92208,6917.881,95.438,540.893,538.599,0.0
53729.0,STARLINK-4651,PAYLOAD,2024-05-01 03:08:16,15.08852892,0.0001417,53.2175,55.9129,86.1682,273.9472,0.00015402,2.165e-05,0.0,0 STARLINK-4651,1 53729U 22107AF  24122.13074680  .00002165  00000-0  15402-3 0  9997,2 53729  53.2175  55.9129 0001417  86.1682 273.9472 15.08852892 91660,6917.841,95.437,540.686,538.726,0.0
53729.0,STARLINK-4651,PAYLOAD,2024-05-01 12:40:35,15.08849153,0.0001517,53.2177,54.13,90.0369,270.0797,0.00019929,2.886e-05,0.0,0 STARLINK-4651,1 53729U 22107AF  24122.52818744  .00002886  00000-0  19929-3 0  9995,2 53729  53.2177  54.1300 0001517  90.0369 270.0797 15.08849153 92352,6917.852,95.437,540.767,538.668,0.0
53729.0,STARLINK-4651,PAYLOAD,2024-05-01 19:02:07,15.08849824,0.0001722,53.2173,52.9411,88.2317,271.8872,0.00023278,3.42e-05,0.0,0 STARLINK-4651,1 53729U 22107AF  24122.79314727  .00003420  00000-0  23278-3 0  9993,2 53729  53.2173  52.9411 0001722  88.2317 271.8872 15.08849824 91769,6917.85,95.437,540.907,538.524,0.0
53729.0,STARLINK-4651,PAYLOAD,2024-05-02 12:31:22,15.08840216,0.0001503,53.2174,49.6678,84.8447,275.2717,-2.1805e-05,-6.35e-06,0.0,0 STARLINK-4651,1 53729U 22107AF  24123.52178978 -.00000635  00000-0 -21805-4 0  9993,2 53729  53.2174  49.6678 0001503  84.8447 275.2717 15.08840216 91875,6917.88,95.438,540.784,538.705,0.0
53729.0,STARLINK-4651,PAYLOAD,2024-05-03 12:22:09,15.08848051,0.0001377,53.2174,45.2074,93.2301,266.8849,0.00014452,2.013e-05,0.0,0 STARLINK-4651,1 53729U 22107AF  24124.51538550  .00002013  00000-0  14452-3 0  9998,2 53729  53.2174  45.2074 0001377  93.2301 266.8849 15.08848051 92653,6917.856,95.437,540.673,538.768,0.0
53729.0,STARLINK-4651,PAYLOAD,2024-05-03 18:43:42,15.08840206,0.0001591,53.2185,44.0189,97.7152,262.4021,0.00010726,1.419e-05,0.0,0 STARLINK-4651,1 53729U 22107AF  24124.78034972  .00001419  00000-0  10726-3 0  9995,2 53729  53.2185  44.0189 0001591  97.7152 262.4021 15.08840206 92063,6917.88,95.438,540.845,538.644,0.0
53729.0,STARLINK-4651,PAYLOAD,2024-05-03 21:54:28,15.08840137,0.0001578,53.2189,43.4242,98.2977,261.8194,7.6955e-05,9.37e-06,0.0,0 STARLINK-4651,1 53729U 22107AF  24124.91283017  .00000937  00000-0  76955-4 0  9997,2 53729  53.2189  43.4242 0001578  98.2977 261.8194 15.08840137 92715,6917.88,95.438,540.837,538.653,0.0
53729.0,STARLINK-4651,PAYLOAD,2024-05-05 04:06:48,15.08839808,0.0001335,53.2174,37.7737,91.6623,268.4522,0.00016437,2.329e-05,0.0,0 STARLINK-4651,1 53729U 22107AF  24126.17139542  .00002329  00000-0  16437-3 0  9995,2 53729  53.2174  37.7737 0001335  91.6623 268.4522 15.08839808 92272,6917.881,95.438,540.67,538.822,0.0
53729.0,STARLINK-4651,PAYLOAD,2024-05-05 21:36:03,15.0884388,0.0001349,53.2183,34.5026,95.1339,264.9807,0.00028349,4.227e-05,0.0,0 STARLINK-4651,1 53729U 22107AF  24126.90003598  .00004227  00000-0  28349-3 0  9991,2 53729  53.2183  34.5026 0001349  95.1339 264.9807 15.08843880 93011,6917.869,95.437,540.667,538.8,0.0
53729.0,STARLINK-4651,PAYLOAD,2024-05-06 10:19:07,15.08850439,0.0001275,53.2172,32.1218,81.7103,278.4034,0.00040939,6.235e-05,0.0,0 STARLINK-4651,1 53729U 22107AF  24127.42995314  .00006235  00000-0  40939-3 0  9995,2 53729  53.2172  32.1218 0001275  81.7103 278.4034 15.08850439 92462,6917.848,95.437,540.596,538.831,0.0
53729.0,STARLINK-4651,PAYLOAD,2024-05-06 21:26:49,15.08848404,0.0001294,53.2177,30.0412,83.2774,276.8366,0.00019752,2.858e-05,0.0,0 STARLINK-4651,1 53729U 22107AF  24127.89363109  .00002858  00000-0  19752-3 0  9993,2 53729  53.2177  30.0412 0001294  83.2774 276.8366 15.08848404 93169,6917.855,95.437,540.615,538.825,0.0
53729.0,STARLINK-4651,PAYLOAD,2024-05-07 10:09:54,15.08857716,0.0001311,53.2181,27.6637,79.8869,280.2271,0.00029395,4.396e-05,0.0,0 STARLINK-4651,1 53729U 22107AF  24128.42354407  .00004396  00000-0  29395-3 0  9997,2 53729  53.2181  27.6637 0001311  79.8869 280.2271 15.08857716 93240,6917.826,95.436,540.598,538.784,0.0
53729.0,STARLINK-4651,PAYLOAD,2024-05-07 21:17:36,15.08840601,0.0001446,53.2185,25.5828,79.3443,280.7712,-0.00013087,-2.37e-05,0.0,0 STARLINK-4651,1 53729U 22107AF  24128.88722877 -.00002370  00000-0 -13087-3 0  9990,2 53729  53.2185  25.5828 0001446  79.3443 280.7712 15.08840601 92682,6917.879,95.438,540.744,538.743,0.0
53729.0,STARLINK-4651,PAYLOAD,2024-05-08 02:03:45,15.08849078,0.000117,53.2177,24.6889,100.5297,259.5827,5.6369e-05,6.1e-06,0.0,0 STARLINK-4651,1 53729U 22107AF  24129.08594366  .00000610  00000-0  56369-4 0  9997,2 53729  53.2177  24.6889 0001170 100.5297 259.5827 15.08849078 92710,6917.853,95.437,540.527,538.908,0.0
53729.0,STARLINK-4651,PAYLOAD,2024-05-08 10:00:42,15.08834587,0.0001565,53.2176,23.2036,89.0654,271.0518,-0.00011586,-2.131e-05,0.0,0 STARLINK-4651,1 53729U 22107AF  24129.41715285 -.00002131  00000-0 -11586-3 0  9992,2 53729  53.2176  23.2036 0001565  89.0654 271.0518 15.08834587 92764,6917.897,95.438,540.845,538.679,0.0
53729.0,STARLINK-4651,PAYLOAD,2024-05-08 22:43:47,15.08835549,0.0001261,53.2159,20.8248,77.9929,282.1204,-3.0148e-05,-7.68e-06,0.0,0 STARLINK-4651,1 53729U 22107AF  24129.94707466 -.00000768  00000-0 -30148-4 0  9992,2 53729  53.2159  20.8248 0001261  77.9929 282.1204 15.08835549 93470,6917.894,95.438,540.631,538.887,0.0
53729.0,STARLINK-4651,PAYLOAD,2024-05-09 09:51:29,15.08843174,0.0001309,53.2166,18.7466,84.1518,275.9623,0.00023814,3.504e-05,0.0,0 STARLINK-4651,1 53729U 22107AF  24130.41075526  .00003504  00000-0  23814-3 0  9991,2 53729  53.2166  18.7466 0001309  84.1518 275.9623 15.08843174 93549,6917.871,95.437,540.641,538.83,0.0
53729.0,STARLINK-4651,PAYLOAD,2024-05-09 20:59:11,15.08843428,0.0001296,53.2166,16.6648,88.0099,272.1041,0.00042672,6.51e-05,0.0,0 STARLINK-4651,1 53729U 22107AF  24130.87443848  .00006510  00000-0  42672-3 0  9990,2 53729  53.2166  16.6648 0001296  88.0099 272.1041 15.08843428 92982,6917.87,95.437,540.631,538.838,0.0
53729.0,STARLINK-4651,PAYLOAD,2024-05-09 22:34:34,15.08845066,0.0001317,53.2167,16.3679,82.0808,278.0334,0.00042754,6.524e-05,0.0,0 STARLINK-4651,1 53729U 22107AF  24130.94067824  .00006524  00000-0  42754-3 0  9990,2 53729  53.2167  16.3679 0001317  82.0808 278.0334 15.08845066 93622,6917.865,95.437,540.641,538.819,0.0
53729.0,STARLINK-4651,PAYLOAD,2024-05-10 09:42:16,15.08840395,0.0001573,53.2159,14.2838,86.7988,273.3184,0.00025556,3.782e-05,0.0,0 STARLINK-4651,1 53729U 22107AF  24131.40436047  .00003782  00000-0  25556-3 0  9993,2 53729  53.2159  14.2838 0001573  86.7988 273.3184 15.08840395 93060,6917.879,95.438,540.832,538.656,0.0
53729.0,STARLINK-4651,PAYLOAD,2024-05-10 22:25:21,15.08848576,0.000163,53.2166,11.9053,80.5418,279.5758,0.00053098,8.175e-05,0.0,0 STARLINK-4651,1 53729U 22107AF  24131.93428014  .00008175  00000-0  53098-3 0  9999,2 53729  53.2166  11.9053 0001630  80.5418 279.5758 15.08848576 93777,6917.854,95.437,540.847,538.592,0.0
53729.0,STARLINK-4651,PAYLOAD,2024-05-11 01:36:07,15.08869141,0.0001556,53.2163,11.3087,103.3041,256.8124,0.0011447,0.00017991,0.0,0 STARLINK-4651,1 53729U 22107AF  24132.06675432  .00017991  00000-0  11447-2 0  9999,2 53729  53.2163  11.3087 0001556 103.3041 256.8124 15.08869141 93167,6917.791,95.436,540.733,538.58,0.0
53729.0,STARLINK-4651,PAYLOAD,2024-05-11 20:40:43,15.0886773,0.0001254,53.2184,7.7394,105.7381,254.375,-0.00019189,-3.343e-05,0.0,0 STARLINK-4651,1 53729U 22107AF  24132.86161175 -.00003343  00000-0 -19189-3 0  9991,2 53729  53.2184   7.7394 0001254 105.7381 254.3750 15.08867730 93281,6917.796,95.436,540.528,538.793,0.0
